Address	City	County	Zip		[sequence]	[summary]	[addressee]	[delivery_line_1]	[delivery_line_2]	[city_name]	[state_abbreviation]	[full_zipcode]	[notes]	[county_name]	[rdi]	[latitude]	[longitude]	[precision]	[dpv_match_code]	[dpv_footnotes]	[footnotes]	[county_fips]	[record_type]	[zip_type]	[carrier_route]	[congressional_district]	[building_default_indicator]	[elot_sequence]	[elot_sort]	[time_zone]	[utc_offset]	[dst]	[dpv_cmra]	[ews_match]	[lacslink_indicator]	[lacslink_code]	[suitelink_match]	[dpv_vacant]	[active]	[urbanization]	[primary_number]	[street_name]	[street_predirection]	[street_postdirection]	[street_suffix]	[secondary_number]	[secondary_designator]	[extra_secondary_number]	[extra_secondary_designator]	[pmb_designator]	[pmb_number]	[default_city_name]	[zipcode]	[plus4_code]	[delivery_point]	[delivery_point_check_digit]	[last_line]	[delivery_point_barcode]
944 East 152nd Street	Cleveland	Cuyahoga	44110		1	Match-Mailable		944 E 152nd St		Cleveland	OH	44110-3068	Standardized, Fixed abbreviations, Matched street and city and state, Confirmed entire address	Cuyahoga	Commercial	41.55385	-81.57582	Zip9	Y	AABB	N#	39035	S	Standard	C011	11		0002	D	Eastern	-5	Y	N					N	Y		944	152nd	E		St								44110	3068	44	5	Cleveland OH 44110-3068	441103068445
18300 Woda Avenue	Cleveland	Cuyahoga	44122		2	No Match		18300 Woda Avenue		Cleveland	OH	44122	Address not found, ZIP+4 did not match		Unknown	41.47213	-81.51825	Zip5		A1	F#			Standard						None																						Beachwood	44122				Cleveland OH 44122	44122
5050 STANLEY	MAPLE HTS	Cuyahoga	44137		3	Match-Mailable		5050 Stanley Ave		Maple Heights	OH	44137-2825	Standardized, Fixed city/state spelling, Address component was changed, Matched street and city and state, Confirmed entire address	Cuyahoga	Commercial	41.42214	-81.57154	Zip9	Y	AABB	B#L#	39035	S	Standard	C003	11		0113	A	Eastern	-5	Y	N					N	Y		5050	Stanley			Ave								44137	2825	50	9	Maple Heights OH 44137-2825	441372825509
10427 Detroit Ave	Cleveland	Cuyahoga	44102		4	Match-Mailable		10427 Detroit Ave		Cleveland	OH	44102-1645	Standardized, Matched street and city and state, Confirmed entire address	Cuyahoga	Commercial	41.48021	-81.75973	Zip9	Y	AABB		39035	S	Standard	C009	11		0136	A	Eastern	-5	Y	N					N	Y		10427	Detroit			Ave								44102	1645	27	4	Cleveland OH 44102-1645	441021645274
22001 Fairmount Blvd	Shaker Hts	Cuyahoga	44118		5	Match-Mailable		22001 Fairmount Blvd		Cleveland	OH	44118-4819	Standardized, Fixed city/state spelling, Matched street and city and state, Confirmed entire address	Cuyahoga	Commercial	41.4865	-81.52561	Zip9	Y	AABB	B#	39035	S	Standard	C033	11		0002	A	Eastern	-5	Y	N					N	Y		22001	Fairmount			Blvd								44118	4819	01	9	Cleveland OH 44118-4819	441184819019
3940 MLK Dr	Cleveland	Cuyahoga	44105		6	Match-Mailable		3940 Martin Luther King Jr Dr		Cleveland	OH	44105-4357	Standardized, Better address exists, Matched street and city and state, Confirmed entire address	Cuyahoga	Commercial	41.45808	-81.60657	Zip9	Y	AABB	P#	39035	S	Standard	C032	11		0010	A	Eastern	-5	Y	N					N	Y		3940	Martin Luther King Jr			Dr								44105	4357	40	3	Cleveland OH 44105-4357	441054357403
2065 Lee road	Cleveland Heights	Cuyahoga	44118		7	Match-Mailable		2065 Lee Rd		Cleveland	OH	44118-2556	Standardized, Fixed abbreviations, Matched street and city and state, Confirmed entire address	Cuyahoga	Commercial	41.50313	-81.56539	Zip9	Y	AABB	N#	39035	S	Standard	C038	11		0078	D	Eastern	-5	Y	N					N	Y		2065	Lee			Rd								44118	2556	65	3	Cleveland OH 44118-2556	441182556653
1000 E. 92nd Street	Cleveland	Cuyahoga	44124		8	Match-Mailable		1000 E 92nd St		Cleveland	OH	44108-3281	Standardized, Corrected ZIP code, Fixed abbreviations, Matched street and city and state, Confirmed entire address	Cuyahoga	Commercial	41.52944	-81.62434	Zip9	Y	AABB	A#N#	39035	S	Standard	C021	11		0002	A	Eastern	-5	Y	N					N	Y		1000	92nd	E		St								44108	3281	00	9	Cleveland OH 44108-3281	441083281009
3689 E. 131st st	Cleveland	Cuyahoga	44120		9	Match-Mailable		3689 E 131st St		Cleveland	OH	44120-4526	Standardized, Fixed abbreviations, Matched street and city and state, Confirmed entire address	Cuyahoga	Commercial	41.4605	-81.59108	Zip9	Y	AABB	N#	39035	S	Standard	C044	11		0134	A	Eastern	-5	Y	N					N	Y		3689	131st	E		St								44120	4526	89	5	Cleveland OH 44120-4526	441204526895
2705 MLK Dr.	Cleveland	Cuyahoga	44104		10	No Match		2705 Mlk Dr		Cleveland	OH	44104	No ZIP+4 assigned, Fixed abbreviations, Better address exists, Matched street and city and state	Cuyahoga	Unknown	41.48186	-81.62702	Zip5		AA	D#N#P#	39035	S	Standard	C020	11				Eastern	-5	Y									2705	Martin Luther King Jr			Dr								44104				Cleveland OH 44104	44104
6114 Broadway	Cleveland	Cuyahoga	44127		11	Match-Mailable		6114 Broadway Ave		Cleveland	OH	44127-1740	Standardized, Address component was changed, Matched street and city and state, Confirmed entire address	Cuyahoga	Commercial	41.46376	-81.64763	Zip9	Y	AABB	L#	39035	S	Standard	C009	11		0094	D	Eastern	-5	Y	N					N	Y		6114	Broadway			Ave								44127	1740	14	5	Cleveland OH 44127-1740	441271740145
14801 Shaw Ave	East Cleveland	Cuyahoga	44112		12	Match-Mailable		14801 Shaw Ave		Cleveland	OH	44112-2717	Standardized, Matched street and city and state, Confirmed entire address	Cuyahoga	Commercial	41.5401	-81.57763	Zip9	Y	AABB		39035	S	Standard	C021	11		0064	A	Eastern	-5	Y	N					N	Y		14801	Shaw			Ave								44112	2717	01	0	Cleveland OH 44112-2717	441122717010
800 Linn Dr	Cleveland	Cuyahoga	44108		13	Match-Mailable		800 Linn Dr		Cleveland	OH	44108-2755	Standardized, Matched street and city and state, Confirmed entire address	Cuyahoga	Commercial	41.53544	-81.60981	Zip9	Y	AABB		39035	S	Standard	C006	11		0036	A	Eastern	-5	Y	N					N	Y		800	Linn			Dr								44108	2755	00	4	Cleveland OH 44108-2755	441082755004
2561 E. 59th Street	Cleveland	Cuyahoga	44104		14	Match-Mailable		2561 E 59th St		Cleveland	OH	44104-1669	Standardized, Fixed abbreviations, Matched street and city and state, Confirmed entire address	Cuyahoga	Commercial	41.48859	-81.64909	Zip9	Y	AABB	N#	39035	S	Standard	C006	11		0079	A	Eastern	-5	Y	N					N	Y		2561	59th	E		St								44104	1669	61	8	Cleveland OH 44104-1669	441041669618
3409 Walton Ave	Cleveland	Cuyahoga	44113		15	Match-Mailable		3409 Walton Ave		Cleveland	OH	44113-4942	Standardized, Matched street and city and state, Confirmed entire address	Cuyahoga	Commercial	41.47063	-81.70699	Zip9	Y	AABB		39035	S	Standard	C009	11		0124	A	Eastern	-5	Y	N					N	Y		3409	Walton			Ave								44113	4942	09	9	Cleveland OH 44113-4942	441134942099
3340 Trowbridge ave	Cleveland	Cuyahoga	44109		16	Match-Mailable		3340 Trowbridge Ave		Cleveland	OH	44109-2049	Standardized, Matched street and city and state, Confirmed entire address	Cuyahoga	Commercial	41.46199	-81.70568	Zip9	Y	AABB		39035	S	Standard	C022	11		0216	A	Eastern	-5	Y	N					N	Y		3340	Trowbridge			Ave								44109	2049	40	3	Cleveland OH 44109-2049	441092049403
15700 LOTUS DR.	CLEVELAND	Cuyahoga	44128		17	Match-Mailable		15700 Lotus Dr		Cleveland	OH	44128-2427	Standardized, Fixed abbreviations, Matched street and city and state, Confirmed entire address	Cuyahoga	Commercial	41.44563	-81.57176	Zip9	Y	AABB	N#	39035	S	Standard	C016	11		0018	A	Eastern	-5	Y	N					N	Y		15700	Lotus			Dr								44128	2427	00	6	Cleveland OH 44128-2427	441282427006
7060 Woodland	Chagrin Falls	Geauga	44023		18	Match-Mailable		7060 Woodland Ave		Chagrin Falls	OH	44023-3641	Standardized, Address component was changed, Matched street and city and state, Confirmed entire address	Geauga	Commercial	41.4145	-81.38876	Zip9	Y	AABB	L#	39055	S	Standard	C044	14		0141	A	Eastern	-5	Y	N					N	Y		7060	Woodland			Ave								44023	3641	60	7	Chagrin Falls OH 44023-3641	440233641607
176 Hedges Street	Mansfield	Richland	44903		19	Match-Mailable		176 Hedges St		Mansfield	OH	44902-2032	Standardized, Corrected ZIP code, Fixed abbreviations, Matched street and city and state, Confirmed entire address	Richland	Commercial	40.75354	-82.51001	Zip9	Y	AABB	A#N#	39139	S	Standard	C001	12		0017	A	Eastern	-5	Y	N					N	Y		176	Hedges			St								44902	2032	76	1	Mansfield OH 44902-2032	449022032761
13216 Detroit Ave.	Lakewood	Cuyahoga	44107		20	Match-Mailable		13216 Detroit Ave		Lakewood	OH	44107-2842	Standardized, Fixed abbreviations, Matched street and city and state, Confirmed entire address	Cuyahoga	Commercial	41.48482	-81.781	Zip9	Y	AABB	N#	39035	S	Standard	C011	09		0008	A	Eastern	-5	Y	N					N	Y		13216	Detroit			Ave								44107	2842	16	1	Lakewood OH 44107-2842	441072842161
6550 Baxter Ave	Cleveland	Cuyahoga	44105		21	Match-Mailable		6550 Baxter Ave		Cleveland	OH	44105-1255	Standardized, Matched street and city and state, Confirmed entire address	Cuyahoga	Commercial	41.45934	-81.64439	Zip9	Y	AABB		39035	S	Standard	C015	11		0124	A	Eastern	-5	Y	N					N	Y		6550	Baxter			Ave								44105	1255	50	8	Cleveland OH 44105-1255	441051255508
4550 W. 150th Street	Cleveland	Cuyahoga	44135		22	Match-Mailable		4550 W 150th St		Cleveland	OH	44135-3460	Standardized, Fixed abbreviations, Matched street and city and state, Confirmed entire address	Cuyahoga	Commercial	41.42908	-81.80301	Zip9	Y	AABB	N#	39035	S	Standard	C004	09		0001	A	Eastern	-5	Y	N					N	Y		4550	150th	W		St								44135	3460	50	5	Cleveland OH 44135-3460	441353460505
3830 EAST 131 STREET	CLEVELAND	Cuyahoga	44120		23	Match-Mailable		3830 E 131st St		Cleveland	OH	44120-4664	Standardized, Fixed abbreviations, Matched street and city and state, Confirmed entire address	Cuyahoga	Commercial	41.45553	-81.59155	Zip9	Y	AABB	N#	39035	S	Standard	C023	11		0069	A	Eastern	-5	Y	N					N	Y		3830	131st	E		St								44120	4664	30	6	Cleveland OH 44120-4664	441204664306
1962 STOKES BLVD.	CLEVELAND	Cuyahoga	44106		24	Match-Mailable		1962 Stokes Blvd		Cleveland	OH	44106-2254	Standardized, Fixed abbreviations, Matched street and city and state, Confirmed entire address	Cuyahoga	Commercial	41.50483	-81.61308	Zip9	Y	AABB	N#	39035	S	Standard	C022	11		0126	A	Eastern	-5	Y	N					N	Y		1962	Stokes			Blvd								44106	2254	62	4	Cleveland OH 44106-2254	441062254624
6901 Superior Avenue	Cleveland	Cuyahoga	44103		25	Match-Mailable		6901 Superior Ave		Cleveland	OH	44103-2635	Standardized, Fixed abbreviations, Matched street and city and state, Confirmed entire address	Cuyahoga	Commercial	41.51925	-81.6422	Zip9	Y	AABB	N#	39035	S	Standard	C008	11		0047	D	Eastern	-5	Y	N					N	Y		6901	Superior			Ave								44103	2635	01	1	Cleveland OH 44103-2635	441032635011
3706 Pearl Road	Cleveland	Cuyahoga	44109		26	Match-Mailable		3706 Pearl Rd		Cleveland	OH	44109-2703	Standardized, Fixed abbreviations, Matched street and city and state, Confirmed entire address	Cuyahoga	Commercial	41.45432	-81.70138	Zip9	Y	AABB	N#	39035	S	Standard	C005	09		0077	A	Eastern	-5	Y	N					N	Y		3706	Pearl			Rd								44109	2703	06	4	Cleveland OH 44109-2703	441092703064
1900 Fulton Road	Cleveland	Cuyahoga	44113		27	Match-Mailable		1900 Fulton Rd		Cleveland	OH	44113-3346	Standardized, Fixed abbreviations, Matched street and city and state, Confirmed entire address	Cuyahoga	Commercial	41.48135	-81.71133	Zip9	Y	AABB	N#	39035	S	Standard	C016	11		0137	A	Eastern	-5	Y	N					N	Y		1900	Fulton			Rd								44113	3346	00	1	Cleveland OH 44113-3346	441133346001
856 EAST 152 STREET	CLEVELAND	Cuyahoga	44110		28	Match-Mailable		856 E 152nd St		Cleveland	OH	44110-3002	Standardized, Fixed abbreviations, Matched street and city and state, Confirmed entire address	Cuyahoga	Commercial	41.55596	-81.57599	Zip9	Y	AABB	N#	39035	S	Standard	C019	11		0003	A	Eastern	-5	Y	N					N	Y		856	152nd	E		St								44110	3002	56	4	Cleveland OH 44110-3002	441103002564
11602 LORAIN AVENUE	CLEVLEAND	Cuyahoga	44111		29	Match-Mailable		11602 Lorain Ave		Cleveland	OH	44111-5403	Standardized, Fixed abbreviations, Matched street and city and state, Confirmed entire address	Cuyahoga	Commercial	41.46305	-81.76851	Zip9	Y	AABB	N#	39035	S	Standard	C032	09		0078	A	Eastern	-5	Y	N					N	Y		11602	Lorain			Ave								44111	5403	02	5	Cleveland OH 44111-5403	441115403025
7224 Broadway Ave	Cleveland	Cuyahoga	44105		30	Match-Mailable		7224 Broadway Ave		Cleveland	OH	44105-1446	Standardized, Matched street and city and state, Confirmed entire address	Cuyahoga	Commercial	41.45735	-81.63827	Zip9	Y	AABB		39035	S	Standard	C018	11		0111	A	Eastern	-5	Y	N					N	Y		7224	Broadway			Ave								44105	1446	24	5	Cleveland OH 44105-1446	441051446245
3545 FULTON ROAD	CLEVELAND	Cuyahoga	44109		31	Match-Mailable		3545 Fulton Rd		Cleveland	OH	44109-2357	Standardized, Fixed abbreviations, Matched street and city and state, Confirmed entire address	Cuyahoga	Commercial	41.45795	-81.71296	Zip9	Y	AABB	N#	39035	S	Standard	C006	09		0064	A	Eastern	-5	Y	N					N	Y		3545	Fulton			Rd								44109	2357	45	6	Cleveland OH 44109-2357	441092357456
7201 KINSMAN AVENUE	CLEVELAND	Cuyahoga	44104		32	Match-Mailable		7201 Kinsman Rd		Cleveland	OH	44104-6149	Standardized, Missing secondary number, Address component was changed, Matched street and city and state, Confirmed without secondary	Cuyahoga	Commercial	41.47987	-81.6381	Zip9	D	AAN1	H#L#	39035	H	Standard	C005	11	Y	0073	A	Eastern	-5	Y	N					N	Y		7201	Kinsman			Rd								44104	6149	99	9	Cleveland OH 44104-6149	441046149999
11900 ST. CLAIR AVENUE	CLEVELAND	Cuyahoga	44108		33	Match-Mailable		11900 Saint Clair Ave		Cleveland	OH	44108-2002	Standardized, Fixed abbreviations, Matched street and city and state, Confirmed entire address	Cuyahoga	Commercial	41.54106	-81.60226	Zip9	Y	AABB	N#	39035	S	Standard	C022	11		0006	A	Eastern	-5	Y	N					N	Y		11900	Saint Clair			Ave								44108	2002	00	9	Cleveland OH 44108-2002	441082002009
16918 HARVARD AVENUE	CLEVELAND	Cuyahoga	44128		34	Match-Mailable		16918 Harvard Ave		Cleveland	OH	44128-2210	Standardized, Fixed abbreviations, Matched street and city and state, Confirmed entire address	Cuyahoga	Commercial	41.4497	-81.56185	Zip9	Y	AABB	N#	39035	S	Standard	C004	11		0040	A	Eastern	-5	Y	N					N	Y		16918	Harvard			Ave								44128	2210	18	7	Cleveland OH 44128-2210	441282210187
1566 CRAWFORD ROAD	CLEVELAND	Cuyahoga	44106		35	Match-Mailable		1566 Crawford Rd		Cleveland	OH	44106-1594	Standardized, Fixed abbreviations, Matched street and city and state, Confirmed entire address	Cuyahoga	Commercial	41.51438	-81.62298	Zip9	Y	AABB	N#	39035	S	Standard	C033	11		0198	A	Eastern	-5	Y	N					N	Y		1566	Crawford			Rd								44106	1594	66	4	Cleveland OH 44106-1594	441061594664
850 JEFFERSON AVENUE	CLEVELAND	Cuyahoga	44113		36	Match-Mailable		850 Jefferson Ave		Cleveland	OH	44113-4649	Standardized, Fixed abbreviations, Matched street and city and state, Confirmed entire address	Cuyahoga	Commercial	41.47917	-81.68568	Zip9	Y	AABB	N#	39035	S	Standard	C015	11		0322	A	Eastern	-5	Y	N					N	Y		850	Jefferson			Ave								44113	4649	50	9	Cleveland OH 44113-4649	441134649509
10200 SUPERIOR AVENUE	CLEVELAND	Cuyahoga	44106		37	Match-Mailable		10200 Superior Ave		Cleveland	OH	44106-1109	Standardized, Fixed abbreviations, Matched street and city and state, Confirmed entire address	Cuyahoga	Commercial	41.52139	-81.61757	Zip9	Y	AABB	N#	39035	S	Standard	C013	11		0001	A	Eastern	-5	Y	N					N	Y		10200	Superior			Ave								44106	1109	00	4	Cleveland OH 44106-1109	441061109004
8216 LORAIN BLVD	CLEVELAND	Cuyahoga	44102		38	Match-Mailable		8216 Lorain Ave		Cleveland	OH	44102-4259	Standardized, Address component was changed, Matched street and city and state, Confirmed entire address	Cuyahoga	Commercial	41.47099	-81.74143	Zip9	Y	AABB	L#	39035	S	Standard	C029	11		0065	A	Eastern	-5	Y	N					N	Y		8216	Lorain			Ave								44102	4259	16	2	Cleveland OH 44102-4259	441024259162
325 SUPERIOR AVENUE	CLEVELAND	Cuyahoga	44114		39	Match-Mailable		325 Superior Ave E		Cleveland	OH	44114-1205	Standardized, Address component was changed, Matched street and city and state, Confirmed entire address	Cuyahoga	Commercial	41.50117	-81.69177	Zip9	Y	AABB	L#	39035	S	Standard	C033	11		0156	A	Eastern	-5	Y	N					N	Y		325	Superior		E	Ave								44114	1205	25	1	Cleveland OH 44114-1205	441141205251
14000 KINSMAN ROAD	CLEVELAND	Cuyahoga	44120		40	Match-Mailable		14000 Kinsman Rd		Cleveland	OH	44120-4821	Standardized, Fixed abbreviations, Matched street and city and state, Confirmed entire address	Cuyahoga	Commercial	41.46403	-81.58445	Zip9	Y	AABB	N#	39035	S	Standard	C044	11		0105	A	Eastern	-5	Y	N					N	Y		14000	Kinsman			Rd								44120	4821	00	4	Cleveland OH 44120-4821	441204821004
11353 SHAKER BLVD.	CLEVELAND	Cuyahoga	44120		41	No Match		11353 Shaker Blvd		Cleveland	OH	44104-3805	Corrected ZIP code, Fixed abbreviations, Matched street and city and state, Primary number invalid	Cuyahoga	Unknown	41.48686	-81.60372	Zip8	N	AAM3	A#N#	39035	S	Standard	C020	11				Eastern	-5	Y									11353	Shaker			Blvd								44104	3805			Cleveland OH 44104-3805	441043805
4421 WEST 140TH STREET	CLEVLEAND	Cuyahoga	44135		42	Match-Mailable		4421 W 140th St		Cleveland	OH	44135-2109	Standardized, Fixed abbreviations, Matched street and city and state, Confirmed entire address	Cuyahoga	Commercial	41.43415	-81.79019	Zip9	Y	AABB	N#	39035	S	Standard	C017	09		0031	A	Eastern	-5	Y	N					N	Y		4421	140th	W		St								44135	2109	21	8	Cleveland OH 44135-2109	441352109218
4303 PEARL ROAD	CLEVELAND	Cuyahoga	44109		43	Match-Mailable		4303 Pearl Rd		Cleveland	OH	44109-4203	Standardized, Fixed abbreviations, Matched street and city and state, Confirmed entire address	Cuyahoga	Commercial	41.43743	-81.7075	Zip9	Y	AABB	N#	39035	S	Standard	C004	09		0006	A	Eastern	-5	Y	N					N	Y		4303	Pearl			Rd								44109	4203	03	0	Cleveland OH 44109-4203	441094203030
2200 E. 30TH STREET	CLEVELAND	Cuyahoga	44115		44	Match-Mailable		2200 E 30th St		Cleveland	OH	44115-2918	Standardized, Fixed abbreviations, Matched street and city and state, Confirmed entire address	Cuyahoga	Commercial	41.49805	-81.6666	Zip9	Y	AABB	N#	39035	S	Standard	C002	11		0195	A	Eastern	-5	Y	N					N	Y		2200	30th	E		St								44115	2918	00	5	Cleveland OH 44115-2918	441152918005
3465 EAST 93RD STREET	CLEVELAND	Cuyahoga	44104		45	No Match		3465 E 93rd St		Cleveland	OH	44104-5251	Fixed abbreviations, Matched street and city and state, Primary number invalid	Cuyahoga	Commercial	41.46391	-81.62107	Zip9	N	AAM3	N#	39035	S	Standard	C018	11				Eastern	-5	Y									3465	93rd	E		St								44104	5251			Cleveland OH 44104-5251	441045251
7910 DETROIT AVENUE	CLEVELAND	Cuyahoga	44102		46	Match-Mailable		7910 Detroit Ave		Cleveland	OH	44102-2816	Standardized, Fixed abbreviations, Matched street and city and state, Confirmed entire address	Cuyahoga	Commercial	41.48203	-81.73961	Zip9	Y	AABB	N#	39035	S	Standard	C004	11		0124	A	Eastern	-5	Y	N					N	Y		7910	Detroit			Ave								44102	2816	10	1	Cleveland OH 44102-2816	441022816101
3805 WEST 157TH STREET	CLEVELAND	Cuyahoga	44111		47	Match-Mailable		3805 W 157th St		Cleveland	OH	44111-5809	Standardized, Fixed abbreviations, Matched street and city and state, Confirmed entire address	Cuyahoga	Commercial	41.45142	-81.80738	Zip9	Y	AABB	N#	39035	S	Standard	C045	09		0003	A	Eastern	-5	Y	N					N	Y		3805	157th	W		St								44111	5809	05	2	Cleveland OH 44111-5809	441115809052
5806 WOODLAND AVENUE	CLEVELAND	Cuyahoga	44104		48	Match-Mailable		5806 Woodland Ave		Cleveland	OH	44104-2743	Standardized, Fixed abbreviations, Matched street and city and state, Confirmed entire address	Cuyahoga	Commercial	41.48793	-81.64914	Zip9	Y	AABB	N#	39035	S	Standard	C006	11		0081	A	Eastern	-5	Y	N					N	Y		5806	Woodland			Ave								44104	2743	06	5	Cleveland OH 44104-2743	441042743065
4480 Ridge Road	Brooklyn	Cuyahoga	44144		49	Match-Mailable		4480 Ridge Rd		Cleveland	OH	44144-3353	Standardized, Fixed abbreviations, Matched street and city and state, Confirmed entire address	Cuyahoga	Commercial	41.43547	-81.7354	Zip9	Y	AABB	N#	39035	S	Standard	C017	09		0013	A	Eastern	-5	Y	N					N	Y		4480	Ridge			Rd								44144	3353	80	1	Cleveland OH 44144-3353	441443353801
5225 Library Lane	Maple Heights	Cuyahoga	44137		50	Match-Mailable		5225 Library Ln		Maple Heights	OH	44137-1242	Standardized, Fixed abbreviations, Matched street and city and state, Confirmed entire address	Cuyahoga	Commercial	41.41811	-81.56965	Zip9	Y	AABB	N#	39035	S	Standard	C003	11		0006	A	Eastern	-5	Y	N					N	Y		5225	Library			Ln								44137	1242	25	5	Maple Heights OH 44137-1242	441371242255
2121 Snow Rd	Parma	Cuyahoga	44134		51	Match-Mailable		2121 Snow Rd		Cleveland	OH	44134-2728	Standardized, Matched street and city and state, Confirmed entire address	Cuyahoga	Commercial	41.40501	-81.69605	Zip9	Y	AABB		39035	S	Standard	C023	09		0003	A	Eastern	-5	Y	N					N	Y		2121	Snow			Rd								44134	2728	21	2	Cleveland OH 44134-2728	441342728212
70 Columbus Road	Bedford	Cuyahoga	44146		52	Match-Mailable		70 Columbus St		Bedford	OH	44146-2836	Standardized, Address component was changed, Matched street and city and state, Confirmed entire address	Cuyahoga	Commercial	41.39363	-81.53509	Zip9	Y	AABB	L#	39035	S	Standard	C001	11		0014	A	Eastern	-5	Y	N					N	Y		70	Columbus			St								44146	2836	70	5	Bedford OH 44146-2836	441462836705
5409 Turney Road	Garfield Heights	Cuyahoga	44125		53	Match-Mailable		5409 Turney Rd		Cleveland	OH	44125-3203	Standardized, Fixed abbreviations, Matched street and city and state, Confirmed entire address	Cuyahoga	Commercial	41.41532	-81.60471	Zip9	Y	AABB	N#	39035	S	Standard	C004	11		0003	A	Eastern	-5	Y	N					N	Y		5409	Turney			Rd								44125	3203	09	7	Cleveland OH 44125-3203	441253203097
4415 Northfield Road	Warrensville Heights	Cuyahoga	44128		54	Match-Mailable		4415 Northfield Rd		Cleveland	OH	44128-4603	Standardized, Fixed abbreviations, Matched street and city and state, Confirmed entire address	Cuyahoga	Commercial	41.43877	-81.52447	Zip9	Y	AABB	N#	39035	S	Standard	C018	11		0271	D	Eastern	-5	Y	N					N	Y		4415	Northfield			Rd								44128	4603	15	2	Cleveland OH 44128-4603	441284603152
14101 Euclid Ave	East Cleveland	Cuyahoga	44101		55	Match-Mailable		14101 Euclid Ave		Cleveland	OH	44112-3807	Standardized, Corrected ZIP code, Matched street and city and state, Confirmed entire address	Cuyahoga	Commercial	41.52875	-81.58512	Zip9	Y	AABB	A#	39035	S	Standard	C032	11		0150	A	Eastern	-5	Y	N					N	Y		14101	Euclid			Ave								44112	3807	01	9	Cleveland OH 44112-3807	441123807019
3104 West 25th St	Cleveland	Cuyahoga	44109		56	Match-Mailable		3104 W 25th St		Cleveland	OH	44109-1688	Standardized, Missing secondary number, Fixed abbreviations, Matched street and city and state, Confirmed without secondary	Cuyahoga	Commercial	41.46976	-81.69982	Zip9	D	AAN1	H#N#	39035	H	Standard	C014	11	Y	0074	A	Eastern	-5	Y	N					N	Y		3104	25th	W		St								44109	1688	99	1	Cleveland OH 44109-1688	441091688991
12200 Fairhill Road	Cleveland	Cuyahoga	44105		57	Match-Mailable		12200 Fairhill Rd		Cleveland	OH	44120-1058	Standardized, Corrected ZIP code, Missing secondary number, Fixed abbreviations, Matched street and city and state, Confirmed without secondary	Cuyahoga	Residential	41.49169	-81.59762	Zip9	D	AAN1	A#H#N#	39035	H	Standard	C002	11	Y	0021	A	Eastern	-5	Y	N					N	Y		12200	Fairhill			Rd								44120	1058	99	7	Cleveland OH 44120-1058	441201058997
7115 Woodland Avenue	Cleveland	Cuyahoga	44104		58	Match-Mailable		7115 Woodland Ave		Cleveland	OH	44104-3025	Standardized, Fixed abbreviations, Matched street and city and state, Confirmed entire address	Cuyahoga	Commercial	41.48821	-81.63921	Zip9	Y	AABB	N#	39035	S	Standard	C023	11		0192	A	Eastern	-5	Y	N					N	Y		7115	Woodland			Ave								44104	3025	15	1	Cleveland OH 44104-3025	441043025151
14109 BENWOOD AVENUE	CLEVELAND	Cuyahoga	44128		59	Match-Mailable		14109 Benwood Ave		Cleveland	OH	44128-1843	Standardized, Fixed abbreviations, Matched street and city and state, Confirmed entire address	Cuyahoga	Commercial	41.45096	-81.58319	Zip9	Y	AABB	N#	39035	S	Standard	C014	11		0085	D	Eastern	-5	Y	N					N	Y		14109	Benwood			Ave								44128	1843	09	6	Cleveland OH 44128-1843	441281843096
53 Park Ave West	Mansfield	Richland	44902		60	Match-Mailable		53 Park Ave W		Mansfield	OH	44902-1602	Standardized, Fixed abbreviations, Matched street and city and state, Confirmed entire address	Richland	Commercial	40.75854	-82.51688	Zip9	Y	AABB	N#	39139	S	Standard	C005	12		0152	A	Eastern	-5	Y	N					N	Y		53	Park		W	Ave								44902	1602	53	4	Mansfield OH 44902-1602	449021602534
2490 Lee Blvd Suite 322	Cleveland Heights	Cuyahoga	44118		61	Match-Mailable		2490 Lee Blvd Ste 322		Cleveland	OH	44118-1268	Standardized, Fixed abbreviations, Bad secondary address, Matched street and city and state, Confirmed by dropping secondary	Cuyahoga	Commercial	41.51614	-81.56988	Zip9	S	AACC	N#S#	39035	H	Standard	C050	11	Y	0002	A	Eastern	-5	Y	N					N	Y		2490	Lee			Blvd	322	Ste						44118	1268	99	7	Cleveland OH 44118-1268	441181268997
8712 Quincy Avenue	Cleveland	Cuyahoga	44106		62	Match-Mailable		8712 Quincy Ave		Cleveland	OH	44106-3444	Standardized, Fixed abbreviations, Matched street and city and state, Confirmed entire address	Cuyahoga	Commercial	41.49333	-81.62653	Zip9	Y	AABB	N#	39035	S	Standard	C021	11		0053	A	Eastern	-5	Y	N					N	Y		8712	Quincy			Ave								44106	3444	12	7	Cleveland OH 44106-3444	441063444127
7820 Euclid Ave	Cleveland	Cuyahoga	44103		63	No Match		7820 Euclid Ave		Cleveland	OH	44103-4824	Matched street and city and state, Primary number invalid	Cuyahoga	Unknown	41.50383	-81.63438	Zip9	N	AAM3		39035	S	Standard	C014	11				Eastern	-5	Y									7820	Euclid			Ave								44103	4824			Cleveland OH 44103-4824	441034824
2503 Broadview Road	Cleveland	Cuyahoga	44109		64	Match-Mailable		2503 Broadview Rd		Cleveland	OH	44109-3300	Standardized, Fixed abbreviations, Matched street and city and state, Confirmed entire address	Cuyahoga	Commercial	41.43937	-81.702	Zip9	Y	AABB	N#	39035	S	Standard	C025	09		0001	A	Eastern	-5	Y	N					N	Y		2503	Broadview			Rd								44109	3300	03	3	Cleveland OH 44109-3300	441093300033
3808  East 131st. Street	Cleveland	Cuyahoga	44120		65	Match-Mailable		3808 E 131st St		Cleveland	OH	44120-4664	Standardized, Fixed abbreviations, Matched street and city and state, Confirmed entire address	Cuyahoga	Commercial	41.45553	-81.59155	Zip9	Y	AABB	N#	39035	S	Standard	C023	11		0069	A	Eastern	-5	Y	N					N	Y		3808	131st	E		St								44120	4664	08	1	Cleveland OH 44120-4664	441204664081
3565 MAYFIELD ROAD	CLEVELAND HEIGHTS	Cuyahoga	44118		66	Match-Mailable		3565 Mayfield Rd		Cleveland	OH	44118-1401	Standardized, Fixed abbreviations, Matched street and city and state, Confirmed entire address	Cuyahoga	Commercial	41.52032	-81.55732	Zip9	Y	AABB	N#	39035	S	Standard	C031	11		0031	A	Eastern	-5	Y	N					N	Y		3565	Mayfield			Rd								44118	1401	65	5	Cleveland OH 44118-1401	441181401655
2355 East 89th Street	Cleveland	Cuyahoga	44105		67	Match-Mailable		2355 E 89th St		Cleveland	OH	44106-3403	Standardized, Corrected ZIP code, Fixed abbreviations, Matched street and city and state, Confirmed entire address	Cuyahoga	Commercial	41.49535	-81.62441	Zip9	Y	AABB	A#N#	39035	S	Standard	C021	11		0051	A	Eastern	-5	Y	N					N	Y		2355	89th	E		St								44106	3403	55	5	Cleveland OH 44106-3403	441063403555
6612 st. clair avenue	cleveland	Cuyahoga	44108		68	Match-Mailable		6612 Saint Clair Ave		Cleveland	OH	44103-1649	Standardized, Corrected ZIP code, Missing secondary number, Fixed abbreviations, Matched street and city and state, Confirmed without secondary	Cuyahoga	Residential	41.52558	-81.64381	Zip9	D	AAN1	A#H#N#	39035	H	Standard	C024	11	Y	0117	A	Eastern	-5	Y	N					N	Y		6612	Saint Clair			Ave								44103	1649	99	0	Cleveland OH 44103-1649	441031649990
8206 Euclid Avenue	Cleveland	Cuyahoga	44103		69	Match-Mailable		8206 Euclid Ave		Cleveland	OH	44103-5062	Standardized, Fixed abbreviations, Matched street and city and state, Confirmed entire address	Cuyahoga	Commercial	41.50356	-81.6306	Zip9	Y	AABB	N#	39035	S	Standard	C010	11		0016	A	Eastern	-5	Y	N					N	Y		8206	Euclid			Ave								44103	5062	06	9	Cleveland OH 44103-5062	441035062069
3311 Perkins Ave.	Cleveland	Cuyahoga	44114		70	Match-Mailable		3311 Perkins Ave		Cleveland	OH	44114-4642	Standardized, Missing secondary number, Fixed abbreviations, Matched street and city and state, Confirmed without secondary	Cuyahoga	Commercial	41.50622	-81.66398	Zip9	D	AAN1	H#N#	39035	H	Standard	C031	11	Y	0231	A	Eastern	-5	Y	N					N	Y		3311	Perkins			Ave								44114	4642	99	2	Cleveland OH 44114-4642	441144642992
11212 Snow Road	Parma	Cuyahoga	44130		71	Match-Mailable		11212 Snow Rd		Cleveland	OH	44130-1727	Standardized, Fixed abbreviations, Matched street and city and state, Confirmed entire address	Cuyahoga	Commercial	41.40512	-81.76771	Zip9	Y	AABB	N#	39035	S	Standard	C003	09		0102	A	Eastern	-5	Y	N					N	Y		11212	Snow			Rd								44130	1727	12	8	Cleveland OH 44130-1727	441301727128
13512 Kinsman Rd	Cleveland	Cuyahoga	44120		72	Match-Mailable		13512 Kinsman Rd		Cleveland	OH	44120-4412	Standardized, Matched street and city and state, Confirmed entire address	Cuyahoga	Commercial	41.46466	-81.58825	Zip9	Y	AABB		39035	S	Standard	C044	11		0113	A	Eastern	-5	Y	N					N	Y		13512	Kinsman			Rd								44120	4412	12	5	Cleveland OH 44120-4412	441204412125
2592 West 14th Street	Cleveland	Cuyahoga	44113		73	Match-Mailable		2592 W 14th St		Cleveland	OH	44113-4409	Standardized, Fixed abbreviations, Matched street and city and state, Confirmed entire address	Cuyahoga	Commercial	41.47691	-81.69186	Zip9	Y	AABB	N#	39035	S	Standard	C003	11		0018	A	Eastern	-5	Y	N					N	Y		2592	14th	W		St								44113	4409	92	9	Cleveland OH 44113-4409	441134409929
4092 East 146th Street	Cleveland	Cuyahoga	44128		74	Match-Mailable		4092 E 146th St		Cleveland	OH	44128-1826	Standardized, Fixed abbreviations, Matched street and city and state, Confirmed entire address	Cuyahoga	Commercial	41.44815	-81.58022	Zip9	Y	AABB	N#	39035	S	Standard	C023	11		0040	A	Eastern	-5	Y	N					N	Y		4092	146th	E		St								44128	1826	92	3	Cleveland OH 44128-1826	441281826923
9000 Superior Avenue	Cleveland	Cuyahoga	44106		75	Match-Mailable		9000 Superior Ave		Cleveland	OH	44106-1051	Standardized, Fixed abbreviations, Matched street and city and state, Confirmed entire address	Cuyahoga	Commercial	41.52067	-81.62508	Zip9	Y	AABB	N#	39035	S	Standard	C013	11		0019	A	Eastern	-5	Y	N					N	Y		9000	Superior			Ave								44106	1051	00	8	Cleveland OH 44106-1051	441061051008
17625 Grovewwod	cleveland	Cuyahoga	44110		76	No Match		17625 Grovewwod		Cleveland	OH	44110	Address not found, ZIP+4 did not match		Unknown	41.56446	-81.57273	Zip5		A1	F#			Standard						None																							44110				Cleveland OH 44110	44110
12645 Lorain Ave	Cleveland	Cuyahoga	44111		77	Match-Mailable		12645 Lorain Ave		Cleveland	OH	44111-2630	Standardized, Matched street and city and state, Confirmed entire address	Cuyahoga	Commercial	41.4595	-81.77601	Zip9	Y	AABB		39035	S	Standard	C049	09		0064	D	Eastern	-5	Y	N					N	Y		12645	Lorain			Ave								44111	2630	45	9	Cleveland OH 44111-2630	441112630459
4402 Clark Ave	Cleveland	Cuyahoga	44109		78	Match-Mailable		4402 Clark Ave		Cleveland	OH	44109-1123	Standardized, Matched street and city and state, Confirmed entire address	Cuyahoga	Commercial	41.46975	-81.71659	Zip9	Y	AABB		39035	S	Standard	C019	11		0126	D	Eastern	-5	Y	N					N	Y		4402	Clark			Ave								44109	1123	02	3	Cleveland OH 44109-1123	441091123023
3095 Scranton Road	Cleveland	Cuyahoga	44113		79	Match-Mailable		3095 Scranton Rd		Cleveland	OH	44113-5339	Standardized, Fixed abbreviations, Matched street and city and state, Confirmed entire address	Cuyahoga	Commercial	41.47048	-81.69645	Zip9	Y	AABB	N#	39035	S	Standard	C009	11		0103	A	Eastern	-5	Y	N					N	Y		3095	Scranton			Rd								44113	5339	95	3	Cleveland OH 44113-5339	441135339953
977 Caledonia Ave	Cleveland	Cuyahoga	44112		80	Match-Mailable		977 Caledonia Ave		Cleveland	OH	44112-2318	Standardized, Matched street and city and state, Confirmed entire address	Cuyahoga	Commercial	41.53493	-81.56125	Zip9	Y	AABB		39035	S	Standard	C033	11		0008	D	Eastern	-5	Y	N					N	Y		977	Caledonia			Ave								44112	2318	77	0	Cleveland OH 44112-2318	441122318770
445 Bowman St	Mansfield	Richland	44903		81	Match-Mailable		445 Bowman St		Mansfield	OH	44903-1201	Standardized, Matched street and city and state, Confirmed entire address	Richland	Commercial	40.77107	-82.52295	Zip9	Y	AABB		39139	S	Standard	C022	12		0066	D	Eastern	-5	Y	N					N	Y		445	Bowman			St								44903	1201	45	7	Mansfield OH 44903-1201	449031201457
445 Bowman St	Mansfield	Richland	44903		82	Match-Mailable		445 Bowman St		Mansfield	OH	44903-1201	Standardized, Matched street and city and state, Confirmed entire address	Richland	Commercial	40.77107	-82.52295	Zip9	Y	AABB		39139	S	Standard	C022	12		0066	D	Eastern	-5	Y	N					N	Y		445	Bowman			St								44903	1201	45	7	Mansfield OH 44903-1201	449031201457
445 Bowman St	Mansfield	Richland	44903		83	Match-Mailable		445 Bowman St		Mansfield	OH	44903-1201	Standardized, Matched street and city and state, Confirmed entire address	Richland	Commercial	40.77107	-82.52295	Zip9	Y	AABB		39139	S	Standard	C022	12		0066	D	Eastern	-5	Y	N					N	Y		445	Bowman			St								44903	1201	45	7	Mansfield OH 44903-1201	449031201457
8901 Detroit Ave.	Cleveland	Cuyahoga	44102		84	Match-Mailable		8901 Detroit Ave		Cleveland	OH	44102-6606	Standardized, Missing secondary number, Fixed abbreviations, Matched street and city and state, Confirmed without secondary	Cuyahoga	Residential	41.48033	-81.7451	Zip9	D	AAN1	H#N#	39035	H	Standard	C008	11	Y	0103	A	Eastern	-5	Y	N					N	Y		8901	Detroit			Ave								44102	6606	99	3	Cleveland OH 44102-6606	441026606993
540 Pearl St.	Mansfield	Richland	44902		85	No Match		540 Pearl St		Mansfield	OH	44902-1130	Fixed abbreviations, Matched street and city and state, Primary number invalid	Richland	Unknown	40.77223	-82.50536	Zip9	N	AAM3	N#	39139	S	Standard	C003	12				Eastern	-5	Y									540	Pearl			St								44902	1130			Mansfield OH 44902-1130	449021130
2357 Tremont Ave.	Cleveland	Cuyahoga	44113		86	Match-Mailable		2357 Tremont Ave		Cleveland	OH	44113-4633	Standardized, Fixed abbreviations, Matched street and city and state, Confirmed entire address	Cuyahoga	Commercial	41.4794	-81.68658	Zip9	Y	AABB	N#	39035	S	Standard	C015	11		0222	A	Eastern	-5	Y	N					N	Y		2357	Tremont			Ave								44113	4633	57	9	Cleveland OH 44113-4633	441134633579
7541 Kinsman Rd.	Cleveland	Cuyahoga	44104		87	Match-Mailable		7541 Kinsman Rd		Cleveland	OH	44104-4028	Standardized, Fixed abbreviations, Matched street and city and state, Confirmed entire address	Cuyahoga	Commercial	41.47855	-81.63583	Zip9	Y	AABB	N#	39035	S	Standard	C005	11		0064	D	Eastern	-5	Y	N					N	Y		7541	Kinsman			Rd								44104	4028	41	8	Cleveland OH 44104-4028	441044028418
12 Clevewland St.	Butler	Richland	44822		88	Match-Mailable		12 Cleveland St		Butler	OH	44822-9305	Standardized, Fixed street spelling, Matched street and city and state, Confirmed entire address	Richland	Commercial	40.58704	-82.42363	Zip9	Y	AABB	M#	39139	S	Standard	R001	12		0011	A	Eastern	-5	Y	N					N	Y		12	Cleveland			St								44822	9305	12	0	Butler OH 44822-9305	448229305120
911 Maud Avenue	Cleveland	Cuyahoga	44103		89	Match-Mailable		911 Maud Ave		Cleveland	OH	44103-2145	Standardized, Fixed abbreviations, Matched street and city and state, Confirmed entire address	Cuyahoga	Commercial	41.52896	-81.63252	Zip9	Y	AABB	N#	39035	S	Standard	C013	11		0152	D	Eastern	-5	Y	N					N	Y		911	Maud			Ave								44103	2145	11	4	Cleveland OH 44103-2145	441032145114
4301 Warrensville Ctr Rd	Warrensville Heights	Cuyahoga	44128		90	Match-Mailable		4301 Warrensville Center Rd		Cleveland	OH	44128-2840	Standardized, Fixed abbreviations, Matched street and city and state, Confirmed entire address	Cuyahoga	Commercial	41.44312	-81.536	Zip9	Y	AABB	N#	39035	S	Standard	C034	11		0019	A	Eastern	-5	Y	N					N	Y		4301	Warrensville Center			Rd								44128	2840	01	6	Cleveland OH 44128-2840	441282840016
7100 Euclid Ave	Cleveland	Cuyahoga	44103		91	Match-Mailable		7100 Euclid Ave		Cleveland	OH	44103-4036	Standardized, Missing secondary number, Matched street and city and state, Confirmed without secondary	Cuyahoga	Commercial	41.50304	-81.63869	Zip9	D	AAN1	H#	39035	H	Standard	C014	11	Y	0208	A	Eastern	-5	Y	N					N	Y		7100	Euclid			Ave								44103	4036	99	7	Cleveland OH 44103-4036	441034036997
